[{"OBJECT_NAME":"ONEWEB-0627","OBJECT_ID":"2023-004AE","EPOCH":"2025-08-08T14:01:57.941760","MEAN_MOTION":13.17649224,"ECCENTRICITY":0.0001601,"INCLINATION":87.9027,"RA_OF_ASC_NODE":68.102,"ARG_OF_PERICENTER":105.8264,"MEAN_ANOMALY":254.3044,"EPHEMERIS_TYPE":0,"CLASSIFICATION_TYPE":"U","NORAD_CAT_ID":55168,"ELEMENT_SET_NO":999,"REV_AT_EPOCH":12641,"BSTAR":7.5769e-5,"MEAN_MOTION_DOT":4.2e-7,"MEAN_MOTION_DDOT":0},{"OBJECT_NAME":"ONEWEB-0628","OBJECT_ID":"2023-004AF","EPOCH":"2025-08-08T14:28:15.574656","MEAN_MOTION":13.12442745,"ECCENTRICITY":0.0001937,"INCLINATION":87.8859,"RA_OF_ASC_NODE":52.7795,"ARG_OF_PERICENTER":110.5351,"MEAN_ANOMALY":249.5985,"EPHEMERIS_TYPE":0,"CLASSIFICATION_TYPE":"U","NORAD_CAT_ID":55169,"ELEMENT_SET_NO":999,"REV_AT_EPOCH":12703,"BSTAR":0.001281,"MEAN_MOTION_DOT":4.74e-6,"MEAN_MOTION_DDOT":0},{"OBJECT_NAME":"ONEWEB-0629","OBJECT_ID":"2023-004AG","EPOCH":"2025-08-08T13:26:43.003680","MEAN_MOTION":13.17650317,"ECCENTRICITY":0.0002061,"INCLINATION":87.9034,"RA_OF_ASC_NODE":68.0984,"ARG_OF_PERICENTER":90.6071,"MEAN_ANOMALY":269.5296,"EPHEMERIS_TYPE":0,"CLASSIFICATION_TYPE":"U","NORAD_CAT_ID":55170,"ELEMENT_SET_NO":999,"REV_AT_EPOCH":12641,"BSTAR":0.00014612,"MEAN_MOTION_DOT":7.0e-7,"MEAN_MOTION_DDOT":0},{"OBJECT_NAME":"ONEWEB-0631","OBJECT_ID":"2023-004AH","EPOCH":"2025-08-08T13:34:46.860960","MEAN_MOTION":13.18687506,"ECCENTRICITY":0.000124,"INCLINATION":87.913,"RA_OF_ASC_NODE":37.5243,"ARG_OF_PERICENTER":91.3131,"MEAN_ANOMALY":268.8143,"EPHEMERIS_TYPE":0,"CLASSIFICATION_TYPE":"U","NORAD_CAT_ID":55171,"ELEMENT_SET_NO":999,"REV_AT_EPOCH":12847,"BSTAR":9.9798e-6,"MEAN_MOTION_DOT":1.7e-7,"MEAN_MOTION_DDOT":0},{"OBJECT_NAME":"ONEWEB-0709","OBJECT_ID":"2023-004AJ","EPOCH":"2025-08-08T14:47:43.125504","MEAN_MOTION":13.11414966,"ECCENTRICITY":0.0001327,"INCLINATION":87.8792,"RA_OF_ASC_NODE":83.3904,"ARG_OF_PERICENTER":50.3585,"MEAN_ANOMALY":309.766,"EPHEMERIS_TYPE":0,"CLASSIFICATION_TYPE":"U","NORAD_CAT_ID":55172,"ELEMENT_SET_NO":999,"REV_AT_EPOCH":12490,"BSTAR":0.0013983,"MEAN_MOTION_DOT":5.08e-6,"MEAN_MOTION_DDOT":0},{"OBJECT_NAME":"ONEWEB-0710","OBJECT_ID":"2023-004AK","EPOCH":"2025-08-08T13:47:22.916256","MEAN_MOTION":13.17647982,"ECCENTRICITY":0.0001684,"INCLINATION":87.9027,"RA_OF_ASC_NODE":68.0941,"ARG_OF_PERICENTER":91.5202,"MEAN_ANOMALY":268.6123,"EPHEMERIS_TYPE":0,"CLASSIFICATION_TYPE":"U","NORAD_CAT_ID":55173,"ELEMENT_SET_NO":999,"REV_AT_EPOCH":12641,"BSTAR":5.0762e-5,"MEAN_MOTION_DOT":3.3e-7,"MEAN_MOTION_DDOT":0},{"OBJECT_NAME":"ONEWEB-0711","OBJECT_ID":"2023-004AL","EPOCH":"2025-08-08T14:06:11.895552","MEAN_MOTION":13.11419681,"ECCENTRICITY":0.0001631,"INCLINATION":87.8791,"RA_OF_ASC_NODE":83.3635,"ARG_OF_PERICENTER":109.2771,"MEAN_ANOMALY":250.8534,"EPHEMERIS_TYPE":0,"CLASSIFICATION_TYPE":"U","NORAD_CAT_ID":55174,"ELEMENT_SET_NO":999,"REV_AT_EPOCH":12486,"BSTAR":-0.00027765,"MEAN_MOTION_DOT":-8.6e-7,"MEAN_MOTION_DDOT":0},{"OBJECT_NAME":"ONEWEB-0713","OBJECT_ID":"2023-004AM","EPOCH":"2025-08-08T14:33:04.605120","MEAN_MOTION":13.11416497,"ECCENTRICITY":0.0001631,"INCLINATION":87.8791,"RA_OF_ASC_NODE":83.3676,"ARG_OF_PERICENTER":91.3863,"MEAN_ANOMALY":268.7451,"EPHEMERIS_TYPE":0,"CLASSIFICATION_TYPE":"U","NORAD_CAT_ID":55175,"ELEMENT_SET_NO":999,"REV_AT_EPOCH":12485,"BSTAR":0.0013986,"MEAN_MOTION_DOT":5.08e-6,"MEAN_MOTION_DDOT":0},{"OBJECT_NAME":"ONEWEB-0715","OBJECT_ID":"2023-004AN","EPOCH":"2025-08-08T14:25:44.427360","MEAN_MOTION":13.11418865,"ECCENTRICITY":0.0001413,"INCLINATION":87.8792,"RA_OF_ASC_NODE":83.3689,"ARG_OF_PERICENTER":75.4587,"MEAN_ANOMALY":284.6698,"EPHEMERIS_TYPE":0,"CLASSIFICATION_TYPE":"U","NORAD_CAT_ID":55176,"ELEMENT_SET_NO":999,"REV_AT_EPOCH":12489,"BSTAR":0.0013467,"MEAN_MOTION_DOT":4.9e-6,"MEAN_MOTION_DDOT":0},{"OBJECT_NAME":"ONEWEB-0716","OBJECT_ID":"2023-004AP","EPOCH":"2025-08-08T13:37:38.350272","MEAN_MOTION":13.17651143,"ECCENTRICITY":0.0001954,"INCLINATION":87.9027,"RA_OF_ASC_NODE":68.0952,"ARG_OF_PERICENTER":82.3528,"MEAN_ANOMALY":277.7825,"EPHEMERIS_TYPE":0,"CLASSIFICATION_TYPE":"U","NORAD_CAT_ID":55177,"ELEMENT_SET_NO":999,"REV_AT_EPOCH":12641,"BSTAR":0.00018283,"MEAN_MOTION_DOT":8.4e-7,"MEAN_MOTION_DDOT":0},{"OBJECT_NAME":"ONEWEB-0717","OBJECT_ID":"2023-004AQ","EPOCH":"2025-08-08T15:02:41.639712","MEAN_MOTION":13.17650356,"ECCENTRICITY":0.0001466,"INCLINATION":87.9032,"RA_OF_ASC_NODE":68.0432,"ARG_OF_PERICENTER":111.0346,"MEAN_ANOMALY":249.0943,"EPHEMERIS_TYPE":0,"CLASSIFICATION_TYPE":"U","NORAD_CAT_ID":55178,"ELEMENT_SET_NO":999,"REV_AT_EPOCH":12647,"BSTAR":0.00013407,"MEAN_MOTION_DOT":6.5e-7,"MEAN_MOTION_DDOT":0},{"OBJECT_NAME":"ONEWEB-0719","OBJECT_ID":"2023-004AR","EPOCH":"2025-08-08T13:27:56.385792","MEAN_MOTION":13.17648237,"ECCENTRICITY":0.0002002,"INCLINATION":87.9027,"RA_OF_ASC_NODE":68.0395,"ARG_OF_PERICENTER":86.5519,"MEAN_ANOMALY":273.5842,"EPHEMERIS_TYPE":0,"CLASSIFICATION_TYPE":"U","NORAD_CAT_ID":55179,"ELEMENT_SET_NO":999,"REV_AT_EPOCH":12641,"BSTAR":1.4544e-5,"MEAN_MOTION_DOT":1.9e-7,"MEAN_MOTION_DDOT":0},{"OBJECT_NAME":"ONEWEB-0530","OBJECT_ID":"2023-029A","EPOCH":"2025-08-08T14:14:54.153312","MEAN_MOTION":13.20772993,"ECCENTRICITY":0.0002143,"INCLINATION":87.9302,"RA_OF_ASC_NODE":336.7703,"ARG_OF_PERICENTER":113.0199,"MEAN_ANOMALY":247.116,"EPHEMERIS_TYPE":0,"CLASSIFICATION_TYPE":"U","NORAD_CAT_ID":55796,"ELEMENT_SET_NO":999,"REV_AT_EPOCH":11988,"BSTAR":0.00021759,"MEAN_MOTION_DOT":1.01e-6,"MEAN_MOTION_DDOT":0},{"OBJECT_NAME":"ONEWEB-0534","OBJECT_ID":"2023-029B","EPOCH":"2025-08-08T13:56:44.065248","MEAN_MOTION":13.20770463,"ECCENTRICITY":0.0002008,"INCLINATION":87.9293,"RA_OF_ASC_NODE":336.7793,"ARG_OF_PERICENTER":96.891,"MEAN_ANOMALY":263.2452,"EPHEMERIS_TYPE":0,"CLASSIFICATION_TYPE":"U","NORAD_CAT_ID":55797,"ELEMENT_SET_NO":999,"REV_AT_EPOCH":11988,"BSTAR":0.00033467,"MEAN_MOTION_DOT":1.49e-6,"MEAN_MOTION_DDOT":0},{"OBJECT_NAME":"ONEWEB-0556","OBJECT_ID":"2023-029C","EPOCH":"2025-08-08T06:49:28.003296","MEAN_MOTION":13.20772416,"ECCENTRICITY":0.0002722,"INCLINATION":87.9298,"RA_OF_ASC_NODE":336.8312,"ARG_OF_PERICENTER":102.9676,"MEAN_ANOMALY":257.1761,"EPHEMERIS_TYPE":0,"CLASSIFICATION_TYPE":"U","NORAD_CAT_ID":55798,"ELEMENT_SET_NO":999,"REV_AT_EPOCH":11984,"BSTAR":0.00016144,"MEAN_MOTION_DOT":7.9e-7,"MEAN_MOTION_DDOT":0},{"OBJECT_NAME":"ONEWEB-0562","OBJECT_ID":"2023-029D","EPOCH":"2025-08-08T13:47:39.952608","MEAN_MOTION":13.20771918,"ECCENTRICITY":0.0002598,"INCLINATION":87.9289,"RA_OF_ASC_NODE":336.7645,"ARG_OF_PERICENTER":116.3939,"MEAN_ANOMALY":243.7461,"EPHEMERIS_TYPE":0,"CLASSIFICATION_TYPE":"U","NORAD_CAT_ID":55799,"ELEMENT_SET_NO":999,"REV_AT_EPOCH":11988,"BSTAR":0.00011421,"MEAN_MOTION_DOT":5.9e-7,"MEAN_MOTION_DDOT":0},{"OBJECT_NAME":"ONEWEB-0563","OBJECT_ID":"2023-029E","EPOCH":"2025-08-08T13:38:34.759104","MEAN_MOTION":13.20772824,"ECCENTRICITY":0.000211,"INCLINATION":87.9299,"RA_OF_ASC_NODE":336.783,"ARG_OF_PERICENTER":94.9667,"MEAN_ANOMALY":265.1707,"EPHEMERIS_TYPE":0,"CLASSIFICATION_TYPE":"U","NORAD_CAT_ID":55800,"ELEMENT_SET_NO":999,"REV_AT_EPOCH":11987,"BSTAR":0.0001671,"MEAN_MOTION_DOT":8.1e-7,"MEAN_MOTION_DDOT":0}]
