ONEWEB-0627             
1 55168U 23004AE  25220.58469840  .00000042  00000+0  75769-4 0  9992
2 55168  87.9027  68.1020 0001601 105.8264 254.3044 13.17649224126416
ONEWEB-0628             
1 55169U 23004AF  25220.60295804  .00000474  00000+0  12810-2 0  9998
2 55169  87.8859  52.7795 0001937 110.5351 249.5985 13.12442745127032
ONEWEB-0629             
1 55170U 23004AG  25220.56021995  .00000070  00000+0  14612-3 0  9998
2 55170  87.9034  68.0984 0002061  90.6071 269.5296 13.17650317126415
ONEWEB-0631             
1 55171U 23004AH  25220.56582015  .00000017  00000+0  99798-5 0  9995
2 55171  87.9130  37.5243 0001240  91.3131 268.8143 13.18687506128477
ONEWEB-0709             
1 55172U 23004AJ  25220.61647136  .00000508  00000+0  13983-2 0  9992
2 55172  87.8792  83.3904 0001327  50.3585 309.7660 13.11414966124902
ONEWEB-0710             
1 55173U 23004AK  25220.57457079  .00000033  00000+0  50762-4 0  9994
2 55173  87.9027  68.0941 0001684  91.5202 268.6123 13.17647982126412
ONEWEB-0711             
1 55174U 23004AL  25220.58763768 -.00000086  00000+0 -27765-3 0  9997
2 55174  87.8791  83.3635 0001631 109.2771 250.8534 13.11419681124863
ONEWEB-0713             
1 55175U 23004AM  25220.60630330  .00000508  00000+0  13986-2 0  9995
2 55175  87.8791  83.3676 0001631  91.3863 268.7451 13.11416497124859
ONEWEB-0715             
1 55176U 23004AN  25220.60120865  .00000490  00000+0  13467-2 0  9997
2 55176  87.8792  83.3689 0001413  75.4587 284.6698 13.11418865124894
ONEWEB-0716             
1 55177U 23004AP  25220.56780498  .00000084  00000+0  18283-3 0  9998
2 55177  87.9027  68.0952 0001954  82.3528 277.7825 13.17651143126411
ONEWEB-0717             
1 55178U 23004AQ  25220.62687083  .00000065  00000+0  13407-3 0  9994
2 55178  87.9032  68.0432 0001466 111.0346 249.0943 13.17650356126471
ONEWEB-0719             
1 55179U 23004AR  25220.56106928  .00000019  00000+0  14544-4 0  9995
2 55179  87.9027  68.0395 0002002  86.5519 273.5842 13.17648237126418
ONEWEB-0530             
1 55796U 23029A   25220.59368233  .00000101  00000+0  21759-3 0  9996
2 55796  87.9302 336.7703 0002143 113.0199 247.1160 13.20772993119887
ONEWEB-0534             
1 55797U 23029B   25220.58106557  .00000149  00000+0  33467-3 0  9996
2 55797  87.9293 336.7793 0002008  96.8910 263.2452 13.20770463119888
ONEWEB-0556             
1 55798U 23029C   25220.28435189  .00000079  00000+0  16144-3 0  9995
2 55798  87.9298 336.8312 0002722 102.9676 257.1761 13.20772416119844
ONEWEB-0562             
1 55799U 23029D   25220.57476797  .00000059  00000+0  11421-3 0  9999
2 55799  87.9289 336.7645 0002598 116.3939 243.7461 13.20771918119883
ONEWEB-0563             
1 55800U 23029E   25220.56845786  .00000081  00000+0  16710-3 0  9990
2 55800  87.9299 336.7830 0002110  94.9667 265.1707 13.20772824119879
